{
  "type": "FeatureCollection",
  "features": [
    {
      "type": "Feature",
      "properties": {
        "norad_id": 66653,
        "name": "2025-274D",
        "group": "last-30-days",
        "lat": -4.988997717949182,
        "lon": -76.88149644185998,
        "alt_km": 601.0948155213773,
        "timestamp": "2025-12-21T09:37:21.370933+00:00",
        "meta_object_name": "2025-274D",
        "meta_object_id": "2025-274D",
        "meta_epoch": "2025-12-21T01:35:49.043904",
        "meta_mean_motion": 14.91940992,
        "meta_eccentricity": 0.0011558,
        "meta_inclination": 97.7402,
        "meta_ra_of_asc_node": 282.1098,
        "meta_arg_of_pericenter": 222.6644,
        "meta_mean_anomaly": 137.3678,
        "meta_ephemeris_type": 0,
        "meta_classification_type": "U",
        "meta_norad_cat_id": 66653,
        "meta_element_set_no": 999,
        "meta_rev_at_epoch": 364,
        "meta_bstar": 0.00015364,
        "meta_mean_motion_dot": 1.501e-05,
        "meta_mean_motion_ddot": 0,
        "tle_line1": "1 66653U 25274D   25355.06653986  .00001501  00000+0  15364-3 0  9997",
        "tle_line2": "2 66653  97.7402 282.1098 0011558 222.6644 137.3678 14.91940992  3649"
      },
      "geometry": {
        "type": "Point",
        "coordinates": [
          -76.88149644185998,
          -4.988997717949182
        ]
      }
    },
    {
      "type": "Feature",
      "properties": {
        "norad_id": 66654,
        "name": "JACK E",
        "group": "last-30-days",
        "lat": 10.13369225219816,
        "lon": -78.94775264173194,
        "alt_km": 600.0243642643327,
        "timestamp": "2025-12-21T09:37:21.370943+00:00",
        "meta_object_name": "JACK E",
        "meta_object_id": "2025-274E",
        "meta_epoch": "2025-12-20T20:42:04.523904",
        "meta_mean_motion": 14.92121282,
        "meta_eccentricity": 0.0012135,
        "meta_inclination": 97.7405,
        "meta_ra_of_asc_node": 281.9164,
        "meta_arg_of_pericenter": 225.2906,
        "meta_mean_anomaly": 134.7326,
        "meta_ephemeris_type": 0,
        "meta_classification_type": "U",
        "meta_norad_cat_id": 66654,
        "meta_element_set_no": 999,
        "meta_rev_at_epoch": 361,
        "meta_bstar": 0.0001597,
        "meta_mean_motion_dot": 1.569e-05,
        "meta_mean_motion_ddot": 0,
        "tle_line1": "1 66654U 25274E   25354.86255236  .00001569  00000+0  15970-3 0  9998",
        "tle_line2": "2 66654  97.7405 281.9164 0012135 225.2906 134.7326 14.92121282  3618"
      },
      "geometry": {
        "type": "Point",
        "coordinates": [
          -78.94775264173194,
          10.13369225219816
        ]
      }
    },
    {
      "type": "Feature",
      "properties": {
        "norad_id": 66655,
        "name": "2025-274F",
        "group": "last-30-days",
        "lat": -15.661359651123254,
        "lon": -75.38922824391724,
        "alt_km": 595.7521632435437,
        "timestamp": "2025-12-21T09:37:21.370955+00:00",
        "meta_object_name": "2025-274F",
        "meta_object_id": "2025-274F",
        "meta_epoch": "2025-12-21T01:38:27.508416",
        "meta_mean_motion": 14.9118005,
        "meta_eccentricity": 0.0004841,
        "meta_inclination": 97.7329,
        "meta_ra_of_asc_node": 282.1016,
        "meta_arg_of_pericenter": 354.4342,
        "meta_mean_anomaly": 5.6822,
        "meta_ephemeris_type": 0,
        "meta_classification_type": "U",
        "meta_norad_cat_id": 66655,
        "meta_element_set_no": 999,
        "meta_rev_at_epoch": 364,
        "meta_bstar": 7.1734e-06,
        "meta_mean_motion_dot": 1.6e-07,
        "meta_mean_motion_ddot": 0,
        "tle_line1": "1 66655U 25274F   25355.06837394  .00000016  00000+0  71734-5 0  9991",
        "tle_line2": "2 66655  97.7329 282.1016 0004841 354.4342   5.6822 14.91180050  3644"
      },
      "geometry": {
        "type": "Point",
        "coordinates": [
          -75.38922824391724,
          -15.661359651123254
        ]
      }
    },
    {
      "type": "Feature",
      "properties": {
        "norad_id": 66656,
        "name": "2025-274G",
        "group": "last-30-days",
        "lat": 26.59057060983057,
        "lon": -81.45221404297811,
        "alt_km": 598.188151389124,
        "timestamp": "2025-12-21T09:37:21.370965+00:00",
        "meta_object_name": "2025-274G",
        "meta_object_id": "2025-274G",
        "meta_epoch": "2025-12-21T01:27:22.379616",
        "meta_mean_motion": 14.92317056,
        "meta_eccentricity": 0.0012719,
        "meta_inclination": 97.7403,
        "meta_ra_of_asc_node": 282.1173,
        "meta_arg_of_pericenter": 226.3765,
        "meta_mean_anomaly": 133.64,
        "meta_ephemeris_type": 0,
        "meta_classification_type": "U",
        "meta_norad_cat_id": 66656,
        "meta_element_set_no": 999,
        "meta_rev_at_epoch": 364,
        "meta_bstar": 0.00017089,
        "meta_mean_motion_dot": 1.692e-05,
        "meta_mean_motion_ddot": 0,
        "tle_line1": "1 66656U 25274G   25355.06067569  .00001692  00000+0  17089-3 0  9993",
        "tle_line2": "2 66656  97.7403 282.1173 0012719 226.3765 133.6400 14.92317056  3644"
      },
      "geometry": {
        "type": "Point",
        "coordinates": [
          -81.45221404297811,
          26.59057060983057
        ]
      }
    },
    {
      "type": "Feature",
      "properties": {
        "norad_id": 66657,
        "name": "SPIRONE",
        "group": "last-30-days",
        "lat": 42.30344449260992,
        "lon": -84.65211129886369,
        "alt_km": 593.8073856108731,
        "timestamp": "2025-12-21T09:37:21.370978+00:00",
        "meta_object_name": "SPIRONE",
        "meta_object_id": "2025-274H",
        "meta_epoch": "2025-12-21T01:23:09.760704",
        "meta_mean_motion": 14.92495961,
        "meta_eccentricity": 0.001084,
        "meta_inclination": 97.74,
        "meta_ra_of_asc_node": 282.1205,
        "meta_arg_of_pericenter": 244.5017,
        "meta_mean_anomaly": 115.5082,
        "meta_ephemeris_type": 0,
        "meta_classification_type": "U",
        "meta_norad_cat_id": 66657,
        "meta_element_set_no": 999,
        "meta_rev_at_epoch": 364,
        "meta_bstar": 0.0001592,
        "meta_mean_motion_dot": 1.579e-05,
        "meta_mean_motion_ddot": 0,
        "tle_line1": "1 66657U 25274H   25355.05775186  .00001579  00000+0  15920-3 0  9990",
        "tle_line2": "2 66657  97.7400 282.1205 0010840 244.5017 115.5082 14.92495961  3640"
      },
      "geometry": {
        "type": "Point",
        "coordinates": [
          -84.65211129886369,
          42.30344449260992
        ]
      }
    },
    {
      "type": "Feature",
      "properties": {
        "norad_id": 66658,
        "name": "2025-274J",
        "group": "last-30-days",
        "lat": 57.302548747580836,
        "lon": -89.76790530627032,
        "alt_km": 591.968761402074,
        "timestamp": "2025-12-21T09:37:21.370988+00:00",
        "meta_object_name": "2025-274J",
        "meta_object_id": "2025-274J",
        "meta_epoch": "2025-12-21T01:19:06.065184",
        "meta_mean_motion": 14.92665941,
        "meta_eccentricity": 0.0011362,
        "meta_inclination": 97.7401,
        "meta_ra_of_asc_node": 282.1244,
        "meta_arg_of_pericenter": 247.8115,
        "meta_mean_anomaly": 112.1899,
        "meta_ephemeris_type": 0,
        "meta_classification_type": "U",
        "meta_norad_cat_id": 66658,
        "meta_element_set_no": 999,
        "meta_rev_at_epoch": 364,
        "meta_bstar": 0.00014447,
        "meta_mean_motion_dot": 1.434e-05,
        "meta_mean_motion_ddot": 0,
        "tle_line1": "1 66658U 25274J   25355.05493131  .00001434  00000+0  14447-3 0  9991",
        "tle_line2": "2 66658  97.7401 282.1244 0011362 247.8115 112.1899 14.92665941  3646"
      },
      "geometry": {
        "type": "Point",
        "coordinates": [
          -89.76790530627032,
          57.302548747580836
        ]
      }
    },
    {
      "type": "Feature",
      "properties": {
        "norad_id": 66659,
        "name": "JACK K",
        "group": "last-30-days",
        "lat": 72.80224243264811,
        "lon": -103.59629906752482,
        "alt_km": 590.412849453648,
        "timestamp": "2025-12-21T09:37:21.371000+00:00",
        "meta_object_name": "JACK K",
        "meta_object_id": "2025-274K",
        "meta_epoch": "2025-12-20T18:48:39.993408",
        "meta_mean_motion": 14.92849632,
        "meta_eccentricity": 0.00120482,
        "meta_inclination": 97.7402,
        "meta_ra_of_asc_node": 281.8653,
        "meta_arg_of_pericenter": 250.4202,
        "meta_mean_anomaly": 109.5717,
        "meta_ephemeris_type": 0,
        "meta_classification_type": "U",
        "meta_norad_cat_id": 66659,
        "meta_element_set_no": 999,
        "meta_rev_at_epoch": 360,
        "meta_bstar": 0.00012555127,
        "meta_mean_motion_dot": 1.245e-05,
        "meta_mean_motion_ddot": 0,
        "tle_line1": "1 66659U 25274K   25354.78379622  .00001245  00000+0  12555-3 0  9997",
        "tle_line2": "2 66659  97.7402 281.8653 0012048 250.4202 109.5717 14.92849632  3603"
      },
      "geometry": {
        "type": "Point",
        "coordinates": [
          -103.59629906752482,
          72.80224243264811
        ]
      }
    }
  ]
}